OBJECT_NAME,OBJECT_ID,EPOCH,MEAN_MOTION,ECCENTRICITY,INCLINATION,RA_OF_ASC_NODE,ARG_OF_PERICENTER,MEAN_ANOMALY,EPHEMERIS_TYPE,CLASSIFICATION_TYPE,NORAD_CAT_ID,ELEMENT_SET_NO,REV_AT_EPOCH,BSTAR,MEAN_MOTION_DOT,MEAN_MOTION_DDOT
STARLINK-30568,2023-158A,2026-06-18T08:59:14.702208,15.27578248,.0001435,43.0012,178.8406,266.0863,93.9825,0,U,58051,999,14895,.21713E-4,.335E-5,0
STARLINK-30575,2023-158B,2026-06-18T08:53:43.458432,15.27563901,.0000747,43.0015,178.8140,258.2322,101.8446,0,U,58052,999,14896,.15086E-3,.389E-4,0
STARLINK-30577,2023-158C,2026-06-18T17:32:22.515360,15.27571139,.00011953,43.0035,176.3434,267.3275,92.7440,0,U,58053,999,14902,.1070169E-4,.32E-6,0
STARLINK-30566,2023-158D,2026-06-18T17:21:16.232256,15.27590098,.00022554,42.9995,176.3046,265.1300,94.9294,0,U,58054,999,14902,.37357985E-3,.10035E-3,0
STARLINK-30544,2023-158E,2026-06-18T17:04:37.410240,15.27571019,.00013743,43.0004,176.2155,276.3116,83.7580,0,U,58055,999,14902,-.4497403E-4,-.1499E-4,0
STARLINK-30553,2023-158F,2026-06-18T08:00:02.513088,15.27574285,.0001013,43.0035,178.5372,271.8258,88.2478,0,U,58056,999,14896,.32133E-5,-.174E-5,0
STARLINK-30541,2023-158G,2026-06-18T07:50:47.963328,15.27583253,.000076,43.0033,178.4929,254.9678,105.1090,0,U,58057,999,14896,.74391E-4,.1786E-4,0
STARLINK-30573,2023-158H,2026-06-18T17:30:32.029632,15.27577343,.0001381,43.0026,176.3483,277.3036,82.7659,0,U,58058,999,14902,.26467123E-4,.466E-5,0
STARLINK-30582,2023-158J,2026-06-18T16:59:03.878592,15.27578588,.00017917,43.0011,176.1871,274.7800,85.2847,0,U,58059,999,14902,.7645571E-5,-.52E-6,0
STARLINK-30558,2023-158K,2026-06-18T10:16:45.230592,15.27570845,.0001487,43.0031,178.3757,269.7354,90.3327,0,U,58060,999,14897,-.12371E-4,-.602E-5,0
STARLINK-30579,2023-158L,2026-06-18T21:27:39.074400,15.27577281,.00014091,43.0015,149.6969,263.0821,96.9870,0,U,58061,999,14934,.29709961E-4,.555E-5,0
STARLINK-30588,2023-158M,2026-06-18T17:36:04.650624,15.27576139,.00010333,43.0030,176.3747,284.1329,75.9408,0,U,58062,999,14902,.4806597E-5,-.13E-5,0
STARLINK-30585,2023-158N,2026-06-18T17:47:10.277952,15.27581763,.00020322,43.0042,176.4393,280.1123,79.9500,0,U,58063,999,14902,.34490133E-4,.687E-5,0
STARLINK-30587,2023-158P,2026-06-18T17:10:09.426432,15.27577869,.00024638,42.9956,176.2437,278.6635,81.3937,0,U,58064,999,14902,-.95057844E-4,-.2877E-4,0
STARLINK-30576,2023-158Q,2026-06-18T17:37:55.576992,15.27588567,.00016965,43.0031,176.3936,275.9553,84.1105,0,U,58065,999,14902,.27089234E-4,.483E-5,0
STARLINK-30571,2023-158R,2026-06-18T10:11:11.972832,15.27580496,.0001825,43.0040,178.3568,277.5959,82.4685,0,U,58066,999,14897,.3524E-4,.707E-5,0
STARLINK-30567,2023-158S,2026-06-18T08:48:08.553888,15.27578125,.0001709,43.0007,178.7668,279.6163,80.4495,0,U,58067,999,14896,.22216E-4,.349E-5,0
STARLINK-30569,2023-158T,2026-06-18T22:23:24.306144,15.27567629,.00011829,43.0035,178.7022,275.9677,84.1040,0,U,58068,999,14901,-.31590815E-4,-.1131E-4,0
STARLINK-30480,2023-158U,2026-06-18T22:10:41.496096,15.27580394,.0000801,43.0036,33.1143,253.2849,106.7915,0,U,58069,999,15072,.46874748E-4,.1028E-4,0
STARLINK-30532,2023-158V,2026-06-18T02:00:04.705920,15.27541978,.00018897,42.9983,180.0965,270.6806,89.3829,0,U,58070,999,14892,-.14016633E-3,-.4113E-4,0
STARLINK-30506,2023-158X,2026-06-18T17:56:25.670112,15.27578428,.00015375,43.0018,176.4719,269.4444,90.6231,0,U,58072,999,14902,.3241335E-4,.63E-5,0
YUNHAI-1 04,2023-159A,2026-06-18T23:13:30.741888,14.32730969,.00015365,98.4980,195.6787,135.2672,224.8636,0,U,58073,999,14005,.12074329E-3,.285E-5,0
STARLINK-30604,2023-160A,2026-06-18T21:08:26.266848,15.27578193,.00018921,43.0034,226.2550,273.6977,86.3659,0,U,58075,999,14842,.22672504E-4,.362E-5,0
STARLINK-30500,2023-160B,2026-06-18T12:01:59.892096,15.27578984,.0001664,43.0008,228.5556,279.4327,80.6336,0,U,58076,999,14836,.22667E-4,.362E-5,0
STARLINK-30613,2023-160C,2026-06-18T21:17:41.430048,15.27576225,.00014012,43.0034,226.3044,272.6716,87.3976,0,U,58077,999,14843,.17765474E-4,.227E-5,0
STARLINK-30597,2023-160D,2026-06-18T20:57:20.003616,15.27576840,.00012295,42.9986,226.1796,268.1132,91.9579,0,U,58078,999,14842,.13479213E-4,.109E-5,0
STARLINK-30598,2023-160E,2026-06-18T11:58:17.137344,15.27583637,.0001438,43.0019,228.5466,279.3133,80.7556,0,U,58079,999,14836,.45014E-4,.977E-5,0
STARLINK-30603,2023-160F,2026-06-18T10:29:41.824896,15.27577725,.0001375,43.0031,228.9417,267.2967,92.7727,0,U,58080,999,14835,.22518E-4,.357E-5,0
STARLINK-30602,2023-160G,2026-06-18T20:43:24.730752,15.26186738,.00011139,42.9982,229.5455,298.1819,61.8919,0,U,58081,999,14838,.36265663E-3,.932E-4,0
STARLINK-30610,2023-160H,2026-06-18T12:40:51.653568,15.27576779,.0001295,43.0020,228.7610,261.9058,98.1647,0,U,58082,999,14836,-.43969E-5,-.383E-5,0
