STARLINK-30568          
1 58051U 23158A   26169.37447572  .00000335  00000+0  21713-4 0  9999
2 58051  43.0012 178.8406 0001435 266.0863  93.9825 15.27578248148951
STARLINK-30575          
1 58052U 23158B   26169.37064188  .00003890  00000+0  15086-3 0  9992
2 58052  43.0015 178.8140 0000747 258.2322 101.8446 15.27563901148967
STARLINK-30577          
1 58053U 23158C   26169.73081615  .00000032  00000+0  10702-4 0  9993
2 58053  43.0035 176.3434 0001195 267.3275  92.7440 15.27571139149027
STARLINK-30566          
1 58054U 23158D   26169.72310454  .00010035  00000+0  37358-3 0  9998
2 58054  42.9995 176.3046 0002255 265.1300  94.9294 15.27590098149029
STARLINK-30544          
1 58055U 23158E   26169.71154410 -.00001499  00000+0 -44974-4 0  9995
2 58055  43.0004 176.2155 0001374 276.3116  83.7580 15.27571019149029
STARLINK-30553          
1 58056U 23158F   26169.33336242 -.00000174  00000+0  32133-5 0  9992
2 58056  43.0035 178.5372 0001013 271.8258  88.2478 15.27574285148963
STARLINK-30541          
1 58057U 23158G   26169.32694402  .00001786  00000+0  74391-4 0  9997
2 58057  43.0033 178.4929 0000760 254.9678 105.1090 15.27583253148969
STARLINK-30573          
1 58058U 23158H   26169.72953738  .00000466  00000+0  26467-4 0  9997
2 58058  43.0026 176.3483 0001381 277.3036  82.7659 15.27577343149023
STARLINK-30582          
1 58059U 23158J   26169.70768378 -.00000052  00000+0  76456-5 0  9996
2 58059  43.0011 176.1871 0001791 274.7800  85.2847 15.27578588149021
STARLINK-30558          
1 58060U 23158K   26169.42830128 -.00000602  00000+0 -12371-4 0  9997
2 58060  43.0031 178.3757 0001487 269.7354  90.3327 15.27570845148973
STARLINK-30579          
1 58061U 23158L   26169.89420225  .00000555  00000+0  29710-4 0  9992
2 58061  43.0015 149.6969 0001409 263.0821  96.9870 15.27577281149340
STARLINK-30588          
1 58062U 23158M   26169.73338716 -.00000130  00000+0  48066-5 0  9995
2 58062  43.0030 176.3747 0001033 284.1329  75.9408 15.27576139149029
STARLINK-30585          
1 58063U 23158N   26169.74109118  .00000687  00000+0  34490-4 0  9990
2 58063  43.0042 176.4393 0002032 280.1123  79.9500 15.27581763149025
STARLINK-30587          
1 58064U 23158P   26169.71538688 -.00002877  00000+0 -95058-4 0  9998
2 58064  42.9956 176.2437 0002463 278.6635  81.3937 15.27577869149026
STARLINK-30576          
1 58065U 23158Q   26169.73467103  .00000483  00000+0  27089-4 0  9992
2 58065  43.0031 176.3936 0001696 275.9553  84.1105 15.27588567149029
STARLINK-30571          
1 58066U 23158R   26169.42444413  .00000707  00000+0  35240-4 0  9995
2 58066  43.0040 178.3568 0001825 277.5959  82.4685 15.27580496148975
STARLINK-30567          
1 58067U 23158S   26169.36676567  .00000349  00000+0  22216-4 0  9997
2 58067  43.0007 178.7668 0001709 279.6163  80.4495 15.27578125148967
STARLINK-30569          
1 58068U 23158T   26169.93292021 -.00001131  00000+0 -31591-4 0  9998
2 58068  43.0035 178.7022 0001182 275.9677  84.1040 15.27567629149018
STARLINK-30480          
1 58069U 23158U   26169.92409139  .00001028  00000+0  46875-4 0  9992
2 58069  43.0036  33.1143 0000801 253.2849 106.7915 15.27580394150721
STARLINK-30532          
1 58070U 23158V   26169.08338780 -.00004113  00000+0 -14017-3 0  9996
2 58070  42.9983 180.0965 0001889 270.6806  89.3829 15.27541978148923
STARLINK-30506          
1 58072U 23158X   26169.74751933  .00000630  00000+0  32413-4 0  9999
2 58072  43.0018 176.4719 0001537 269.4444  90.6231 15.27578428149020
YUNHAI-1 04             
1 58073U 23159A   26169.96771692  .00000285  00000+0  12074-3 0  9995
2 58073  98.4980 195.6787 0001536 135.2672 224.8636 14.32730969140052
STARLINK-30604          
1 58075U 23160A   26169.88085957  .00000362  00000+0  22673-4 0  9995
2 58075  43.0034 226.2550 0001892 273.6977  86.3659 15.27578193148428
STARLINK-30500          
1 58076U 23160B   26169.50138764  .00000362  00000+0  22667-4 0  9993
2 58076  43.0008 228.5556 0001664 279.4327  80.6336 15.27578984148361
STARLINK-30613          
1 58077U 23160C   26169.88728507  .00000227  00000+0  17765-4 0  9998
2 58077  43.0034 226.3044 0001401 272.6716  87.3976 15.27576225148433
STARLINK-30597          
1 58078U 23160D   26169.87314819  .00000109  00000+0  13479-4 0  9992
2 58078  42.9986 226.1796 0001229 268.1132  91.9579 15.27576840148422
STARLINK-30598          
1 58079U 23160E   26169.49880946  .00000977  00000+0  45014-4 0  9993
2 58079  43.0019 228.5466 0001438 279.3133  80.7556 15.27583637148365
STARLINK-30603          
1 58080U 23160F   26169.43728964  .00000357  00000+0  22518-4 0  9996
2 58080  43.0031 228.9417 0001375 267.2967  92.7727 15.27577725148355
STARLINK-30602          
1 58081U 23160G   26169.86348068  .00009320  00000+0  36266-3 0  9990
2 58081  42.9982 229.5455 0001113 298.1819  61.8919 15.26186738148389
STARLINK-30610          
1 58082U 23160H   26169.52837562 -.00000383  00000+0 -43969-5 0  9998
2 58082  43.0020 228.7610 0001295 261.9058  98.1647 15.27576779148361
